COMMENT,ORIGINATOR,NORAD_CAT_ID,OBJECT_NAME,OBJECT_TYPE,CLASSIFICATION_TYPE,INTLDES,EPOCH,EPOCH_MICROSECONDS,MEAN_MOTION,ECCENTRICITY,INCLINATION,RA_OF_ASC_NODE,ARG_OF_PERICENTER,MEAN_ANOMALY,EPHEMERIS_TYPE,ELEMENT_SET_NO,REV_AT_EPOCH,BSTAR,MEAN_MOTION_DOT,MEAN_MOTION_DDOT,FILE,TLE_LINE0,TLE_LINE1,TLE_LINE2,OBJECT_ID,OBJECT_NUMBER,SEMIMAJOR_AXIS,PERIOD,APOGEE,PERIGEE,DECAYED
"GENERATED VIA SPACETRACK.ORG API","18 SPCS","48895","SPACEBEE-108","PAYLOAD","U","21059S","2024-01-23 09:05:20","882688","15.61635407","0.0004017","97.6062","174.8871","265.8938","94.1859","0","999","14333","0.0019738","0.00172991","0","4169282","0 SPACEBEE-108","1 48895U 21059S   24023.37871392  .00172991  00000-0  19738-2 0  9991","2 48895  97.6062 174.8871 0004017 265.8938  94.1859 15.61635407143333","2021-059S","48895","6761.070","92.211","385.651","380.219","0"
"GENERATED VIA SPACETRACK.ORG API","18 SPCS","48895","SPACEBEE-108","PAYLOAD","U","21059S","2024-01-23 09:05:20","882688","15.61635407","0.0004017","97.6062","174.8871","265.8938","94.1859","0","999","14333","0.0019738","0.00172991","0","4169695","0 SPACEBEE-108","1 48895U 21059S   24023.37871392  .00172991  00000-0  19738-2 0  9991","2 48895  97.6062 174.8871 0004017 265.8938  94.1859 15.61635407143333","2021-059S","48895","6761.070","92.211","385.651","380.219","0"
"GENERATED VIA SPACETRACK.ORG API","18 SPCS","48895","SPACEBEE-108","PAYLOAD","U","21059S","2024-01-24 09:41:31","852896","15.62001123","0.0003981","97.6066","175.9882","265.7629","94.3174","0","999","14349","0.0021552","0.00192024","0","4170074","0 SPACEBEE-108","1 48895U 21059S   24024.40384089  .00192024  00000-0  21552-2 0  9994","2 48895  97.6066 175.9882 0003981 265.7629  94.3174 15.62001123143498","2021-059S","48895","6760.014","92.189","384.570","379.188","0"
"GENERATED VIA SPACETRACK.ORG API","18 SPCS","48895","SPACEBEE-108","PAYLOAD","U","21059S","2024-01-24 09:41:31","852896","15.62001123","0.0003981","97.6066","175.9882","265.7629","94.3174","0","999","14349","0.0021552","0.00192024","0","4170326","0 SPACEBEE-108","1 48895U 21059S   24024.40384089  .00192024  00000-0  21552-2 0  9994","2 48895  97.6066 175.9882 0003981 265.7629  94.3174 15.62001123143498","2021-059S","48895","6760.014","92.189","384.570","379.188","0"
"GENERATED VIA SPACETRACK.ORG API","18 SPCS","48895","SPACEBEE-108","PAYLOAD","U","21059S","2024-01-24 21:59:29","528736","15.62177112","0.0004037","97.6065","176.5387","266.4337","93.6458","0","999","14357","0.0019389","0.00173524","0","4170567","0 SPACEBEE-108","1 48895U 21059S   24024.91631399  .00173524  00000-0  19389-2 0  9998","2 48895  97.6065 176.5387 0004037 266.4337  93.6458 15.62177112143579","2021-059S","48895","6759.507","92.179","384.100","378.643","0"
"GENERATED VIA SPACETRACK.ORG API","18 SPCS","48895","SPACEBEE-108","PAYLOAD","U","21059S","2024-01-24 23:31:43","895424","15.62194193","0.0004012","97.6064","176.6077","266.0758","94.0041","0","999","14358","0.0018403","0.00164623","0","4170605","0 SPACEBEE-108","1 48895U 21059S   24024.98036916  .00164623  00000-0  18403-2 0  9995","2 48895  97.6064 176.6077 0004012 266.0758  94.0041 15.62194193143583","2021-059S","48895","6759.457","92.178","384.034","378.610","0"
"GENERATED VIA SPACETRACK.ORG API","18 SPCS","48895","SPACEBEE-108","PAYLOAD","U","21059S","2024-01-25 08:45:08","625024","15.62317328","0.000392","97.6063","177.0209","265.5384","94.5425","0","999","14364","0.0018015","0.00161861","0","4171093","0 SPACEBEE-108","1 48895U 21059S   24025.36468316  .00161861  00000-0  18015-2 0  9991","2 48895  97.6063 177.0209 0003920 265.5384  94.5425 15.62317328143645","2021-059S","48895","6759.102","92.171","383.617","378.318","0"
"GENERATED VIA SPACETRACK.ORG API","18 SPCS","48895","SPACEBEE-108","PAYLOAD","U","21059S","2024-01-25 22:35:11","180832","15.6249386","0.0003883","97.6063","177.6412","268.4318","91.6494","0","999","14373","0.0019551","0.00177206","0","4171361","0 SPACEBEE-108","1 48895U 21059S   24025.94110163  .00177206  00000-0  19551-2 0  9995","2 48895  97.6063 177.6412 0003883 268.4318  91.6494 15.62493860143734","2021-059S","48895","6758.593","92.160","383.082","377.834","0"
"GENERATED VIA SPACETRACK.ORG API","18 SPCS","48895","SPACEBEE-108","PAYLOAD","U","21059S","2024-01-25 22:35:11","180832","15.6249386","0.0003883","97.6063","177.6412","268.4318","91.6494","0","999","14373","0.0019551","0.00177206","0","4171386","0 SPACEBEE-108","1 48895U 21059S   24025.94110163  .00177206  00000-0  19551-2 0  9995","2 48895  97.6063 177.6412 0003883 268.4318  91.6494 15.62493860143734","2021-059S","48895","6758.593","92.160","383.082","377.834","0"
"GENERATED VIA SPACETRACK.ORG API","18 SPCS","48895","SPACEBEE-108","PAYLOAD","U","21059S","2024-01-26 09:20:42","116640","15.62657537","0.000392","97.6066","178.1226","265.4211","94.6598","0","999","14380","0.0022378","0.00204828","0","4171858","0 SPACEBEE-108","1 48895U 21059S   24026.38937635  .00204828  00000-0  22378-2 0  9997","2 48895  97.6066 178.1226 0003920 265.4211  94.6598 15.62657537143806","2021-059S","48895","6758.121","92.151","382.635","377.337","0"
"GENERATED VIA SPACETRACK.ORG API","18 SPCS","48895","SPACEBEE-108","PAYLOAD","U","21059S","2024-01-26 09:20:42","116640","15.62657537","0.000392","97.6066","178.1226","265.4211","94.6598","0","999","14380","0.0022378","0.00204828","0","4171896","0 SPACEBEE-108","1 48895U 21059S   24026.38937635  .00204828  00000-0  22378-2 0  9997","2 48895  97.6066 178.1226 0003920 265.4211  94.6598 15.62657537143806","2021-059S","48895","6758.121","92.151","382.635","377.337","0"
"GENERATED VIA SPACETRACK.ORG API","18 SPCS","48895","SPACEBEE-108","PAYLOAD","U","21059S","2024-01-26 23:10:33","395520","15.62849048","0.0003926","97.6066","178.7426","267.1008","92.9801","0","999","14389","0.0019617","0.00180339","0","4172238","0 SPACEBEE-108","1 48895U 21059S   24026.96566430  .00180339  00000-0  19617-2 0  9994","2 48895  97.6066 178.7426 0003926 267.1008  92.9801 15.62849048143890","2021-059S","48895","6757.569","92.139","382.087","376.781","0"
"GENERATED VIA SPACETRACK.ORG API","18 SPCS","48895","SPACEBEE-108","PAYLOAD","U","21059S","2024-01-27 09:55:55","756992","15.62999151","0.0003857","97.6071","179.2244","266.0437","94.0379","0","999","14396","0.0018968","0.00175278","0","4172745","0 SPACEBEE-108","1 48895U 21059S   24027.41383978  .00175278  00000-0  18968-2 0  9993","2 48895  97.6071 179.2244 0003857 266.0437  94.0379 15.62999151143969","2021-059S","48895","6757.136","92.131","381.608","376.395","0"
"GENERATED VIA SPACETRACK.ORG API","18 SPCS","48895","SPACEBEE-108","PAYLOAD","U","21059S","2024-01-27 09:55:55","756992","15.62999151","0.0003857","97.6071","179.2244","266.0437","94.0379","0","999","14396","0.0018968","0.00175278","0","4172804","0 SPACEBEE-108","1 48895U 21059S   24027.41383978  .00175278  00000-0  18968-2 0  9993","2 48895  97.6071 179.2244 0003857 266.0437  94.0379 15.62999151143969","2021-059S","48895","6757.136","92.131","381.608","376.395","0"
"GENERATED VIA SPACETRACK.ORG API","18 SPCS","48895","SPACEBEE-108","PAYLOAD","U","21059S","2024-01-27 22:13:25","481568","15.63161184","0.0003828","97.6068","179.7757","267.5477","92.5342","0","999","14404","0.0018896","0.00175724","0","4172992","0 SPACEBEE-108","1 48895U 21059S   24027.92598937  .00175724  00000-0  18896-2 0  9998","2 48895  97.6068 179.7757 0003828 267.5477  92.5342 15.63161184144048","2021-059S","48895","6756.669","92.121","381.121","375.948","0"
"GENERATED VIA SPACETRACK.ORG API","18 SPCS","48895","SPACEBEE-108","PAYLOAD","U","21059S","2024-01-27 22:13:25","481568","15.63161184","0.0003828","97.6068","179.7757","267.5477","92.5342","0","999","14404","0.0018896","0.00175724","0","4173069","0 SPACEBEE-108","1 48895U 21059S   24027.92598937  .00175724  00000-0  18896-2 0  9998","2 48895  97.6068 179.7757 0003828 267.5477  92.5342 15.63161184144048","2021-059S","48895","6756.669","92.121","381.121","375.948","0"
"GENERATED VIA SPACETRACK.ORG API","18 SPCS","48895","SPACEBEE-108","PAYLOAD","U","21059S","2024-01-28 08:58:40","219968","15.63295421","0.0003782","97.6069","180.2574","266.1053","93.9773","0","999","14411","0.0016417","0.0015303","0","4173344","0 SPACEBEE-108","1 48895U 21059S   24028.37407662  .00153030  00000-0  16417-2 0  9995","2 48895  97.6069 180.2574 0003782 266.1053  93.9773 15.63295421144110","2021-059S","48895","6756.283","92.113","380.703","375.592","0"
"GENERATED VIA SPACETRACK.ORG API","18 SPCS","48895","SPACEBEE-108","PAYLOAD","U","21059S","2024-01-28 08:58:40","219968","15.63295421","0.0003782","97.6069","180.2574","266.1053","93.9773","0","999","14411","0.0016417","0.0015303","0","4173554","0 SPACEBEE-108","1 48895U 21059S   24028.37407662  .00153030  00000-0  16417-2 0  9995","2 48895  97.6069 180.2574 0003782 266.1053  93.9773 15.63295421144110","2021-059S","48895","6756.283","92.113","380.703","375.592","0"
"GENERATED VIA SPACETRACK.ORG API","18 SPCS","48895","SPACEBEE-108","PAYLOAD","U","21059S","2024-01-28 22:48:11","400480","15.63476117","0.0003807","97.6072","180.8781","267.0732","93.009","0","999","14420","0.0017809","0.00167484","0","4173840","0 SPACEBEE-108","1 48895U 21059S   24028.95013195  .00167484  00000-0  17809-2 0  9997","2 48895  97.6072 180.8781 0003807 267.0732  93.0090 15.63476117144208","2021-059S","48895","6755.762","92.102","380.199","375.055","0"
"GENERATED VIA SPACETRACK.ORG API","18 SPCS","48895","SPACEBEE-108","PAYLOAD","U","21059S","2024-01-29 09:33:18","15552","15.63638672","0.0003671","97.6071","181.3604","270.0519","90.0318","0","999","14427","0.0018695","0.00177147","0","4174151","0 SPACEBEE-108","1 48895U 21059S   24029.39812518  .00177147  00000-0  18695-2 0  9993","2 48895  97.6071 181.3604 0003671 270.0519  90.0318 15.63638672144276","2021-059S","48895","6755.294","92.093","379.639","374.679","0"
